{
  "type": "FeatureCollection",
  "features": [
    {
      "type": "Feature",
      "properties": {
        "norad_id": 46432,
        "name": "COSMOS 2251 DEB",
        "group": "cosmos-2251-debris",
        "lat": -7.143915216568487,
        "lon": -72.79680130561272,
        "alt_km": 827.475230352472,
        "timestamp": "2025-12-16T15:45:51.444354+00:00",
        "meta_object_name": "COSMOS 2251 DEB",
        "meta_object_id": "1993-036BWW",
        "meta_epoch": "2025-12-10T15:12:54.844704",
        "meta_mean_motion": 13.36630678,
        "meta_eccentricity": 0.047382,
        "meta_inclination": 73.872,
        "meta_ra_of_asc_node": 114.6117,
        "meta_arg_of_pericenter": 232.4487,
        "meta_mean_anomaly": 146.831,
        "meta_ephemeris_type": 0,
        "meta_classification_type": "U",
        "meta_norad_cat_id": 46432,
        "meta_element_set_no": 999,
        "meta_rev_at_epoch": 66938,
        "meta_bstar": 0.0019144,
        "meta_mean_motion_dot": 1.863e-05,
        "meta_mean_motion_ddot": 0,
        "tle_line1": "1 46432U 93036BWW 25344.63396811  .00001863  00000+0  19144-2 0  9993",
        "tle_line2": "2 46432  73.8720 114.6117 0473820 232.4487 146.8310 13.36630678669381"
      },
      "geometry": {
        "type": "Point",
        "coordinates": [
          -72.79680130561272,
          -7.143915216568487
        ]
      }
    },
    {
      "type": "Feature",
      "properties": {
        "norad_id": 47045,
        "name": "COSMOS 2251 DEB",
        "group": "cosmos-2251-debris",
        "lat": -51.57716515700702,
        "lon": -16.92356350010305,
        "alt_km": 754.032419308437,
        "timestamp": "2025-12-16T15:45:51.444364+00:00",
        "meta_object_name": "COSMOS 2251 DEB",
        "meta_object_id": "1993-036BWZ",
        "meta_epoch": "2025-12-08T18:12:30.966336",
        "meta_mean_motion": 14.3889696,
        "meta_eccentricity": 0.00302024,
        "meta_inclination": 74.0568,
        "meta_ra_of_asc_node": 156.4972,
        "meta_arg_of_pericenter": 298.2595,
        "meta_mean_anomaly": 80.2379,
        "meta_ephemeris_type": 0,
        "meta_classification_type": "U",
        "meta_norad_cat_id": 47045,
        "meta_element_set_no": 999,
        "meta_rev_at_epoch": 7748,
        "meta_bstar": 0.00016053941,
        "meta_mean_motion_dot": 4.71e-06,
        "meta_mean_motion_ddot": 0,
        "tle_line1": "1 47045U 93036BWZ 25342.75869174  .00000471  00000+0  16054-3 0  9994",
        "tle_line2": "2 47045  74.0568 156.4972 0030202 298.2595  80.2379 14.38896960 77482"
      },
      "geometry": {
        "type": "Point",
        "coordinates": [
          -16.92356350010305,
          -51.57716515700702
        ]
      }
    },
    {
      "type": "Feature",
      "properties": {
        "norad_id": 47048,
        "name": "COSMOS 2251 DEB",
        "group": "cosmos-2251-debris",
        "lat": -10.373394285205352,
        "lon": -51.23797251775014,
        "alt_km": 802.7093528338964,
        "timestamp": "2025-12-16T15:45:51.444374+00:00",
        "meta_object_name": "COSMOS 2251 DEB",
        "meta_object_id": "1993-036BXC",
        "meta_epoch": "2025-12-12T16:45:08.160768",
        "meta_mean_motion": 14.52302543,
        "meta_eccentricity": 0.01328752,
        "meta_inclination": 73.9781,
        "meta_ra_of_asc_node": 319.2649,
        "meta_arg_of_pericenter": 147.2155,
        "meta_mean_anomaly": 32.9715,
        "meta_ephemeris_type": 0,
        "meta_classification_type": "U",
        "meta_norad_cat_id": 47048,
        "meta_element_set_no": 999,
        "meta_rev_at_epoch": 59689,
        "meta_bstar": 0.0015366021,
        "meta_mean_motion_dot": 6.991e-05,
        "meta_mean_motion_ddot": 0,
        "tle_line1": "1 47048U 93036BXC 25346.69801112  .00006991  00000+0  15366-2 0  9999",
        "tle_line2": "2 47048  73.9781 319.2649 0132875 147.2155  32.9715 14.52302543596898"
      },
      "geometry": {
        "type": "Point",
        "coordinates": [
          -51.23797251775014,
          -10.373394285205352
        ]
      }
    },
    {
      "type": "Feature",
      "properties": {
        "norad_id": 47051,
        "name": "COSMOS 2251 DEB",
        "group": "cosmos-2251-debris",
        "lat": -9.03684018630088,
        "lon": -0.21334290236296702,
        "alt_km": 1051.4534079984523,
        "timestamp": "2025-12-16T15:45:51.444384+00:00",
        "meta_object_name": "COSMOS 2251 DEB",
        "meta_object_id": "1993-036BXF",
        "meta_epoch": "2025-12-13T06:55:53.868288",
        "meta_mean_motion": 13.67117141,
        "meta_eccentricity": 0.03401033,
        "meta_inclination": 74.1001,
        "meta_ra_of_asc_node": 182.6908,
        "meta_arg_of_pericenter": 296.1774,
        "meta_mean_anomaly": 246.9893,
        "meta_ephemeris_type": 0,
        "meta_classification_type": "U",
        "meta_norad_cat_id": 47051,
        "meta_element_set_no": 999,
        "meta_rev_at_epoch": 59945,
        "meta_bstar": 0.0019326179,
        "meta_mean_motion_dot": 2.391e-05,
        "meta_mean_motion_ddot": 0,
        "tle_line1": "1 47051U 93036BXF 25347.28881792  .00002391  00000+0  19326-2 0  9991",
        "tle_line2": "2 47051  74.1001 182.6908 0340103 296.1774 246.9893 13.67117141599458"
      },
      "geometry": {
        "type": "Point",
        "coordinates": [
          -0.21334290236296702,
          -9.03684018630088
        ]
      }
    },
    {
      "type": "Feature",
      "properties": {
        "norad_id": 47052,
        "name": "COSMOS 2251 DEB",
        "group": "cosmos-2251-debris",
        "lat": 38.8506333166658,
        "lon": 139.82714089116996,
        "alt_km": 771.9745859214463,
        "timestamp": "2025-12-16T15:45:51.444394+00:00",
        "meta_object_name": "COSMOS 2251 DEB",
        "meta_object_id": "1993-036BXG",
        "meta_epoch": "2025-12-13T17:42:34.547904",
        "meta_mean_motion": 14.35482778,
        "meta_eccentricity": 0.00580984,
        "meta_inclination": 74.0478,
        "meta_ra_of_asc_node": 338.4955,
        "meta_arg_of_pericenter": 52.4094,
        "meta_mean_anomaly": 127.807,
        "meta_ephemeris_type": 0,
        "meta_classification_type": "U",
        "meta_norad_cat_id": 47052,
        "meta_element_set_no": 999,
        "meta_rev_at_epoch": 61803,
        "meta_bstar": 0.00037288685,
        "meta_mean_motion_dot": 1.067e-05,
        "meta_mean_motion_ddot": 0,
        "tle_line1": "1 47052U 93036BXG 25347.73789986  .00001067  00000+0  37289-3 0  9992",
        "tle_line2": "2 47052  74.0478 338.4955 0058098  52.4094 127.8070 14.35482778618033"
      },
      "geometry": {
        "type": "Point",
        "coordinates": [
          139.82714089116996,
          38.8506333166658
        ]
      }
    },
    {
      "type": "Feature",
      "properties": {
        "norad_id": 47053,
        "name": "COSMOS 2251 DEB",
        "group": "cosmos-2251-debris",
        "lat": -71.50667518019479,
        "lon": -170.9799440958186,
        "alt_km": 1256.200254556169,
        "timestamp": "2025-12-16T15:45:51.444547+00:00",
        "meta_object_name": "COSMOS 2251 DEB",
        "meta_object_id": "1993-036BXH",
        "meta_epoch": "2025-12-11T02:15:18.253728",
        "meta_mean_motion": 13.59660001,
        "meta_eccentricity": 0.03765467,
        "meta_inclination": 74.0597,
        "meta_ra_of_asc_node": 256.721,
        "meta_arg_of_pericenter": 70.6385,
        "meta_mean_anomaly": 352.548,
        "meta_ephemeris_type": 0,
        "meta_classification_type": "U",
        "meta_norad_cat_id": 47053,
        "meta_element_set_no": 999,
        "meta_rev_at_epoch": 28866,
        "meta_bstar": 0.0019220925,
        "meta_mean_motion_dot": 2.258e-05,
        "meta_mean_motion_ddot": 0,
        "tle_line1": "1 47053U 93036BXH 25345.09396127  .00002258  00000+0  19221-2 0  9999",
        "tle_line2": "2 47053  74.0597 256.7210 0376546  70.6385 352.5480 13.59660001288664"
      },
      "geometry": {
        "type": "Point",
        "coordinates": [
          -170.9799440958186,
          -71.50667518019479
        ]
      }
    },
    {
      "type": "Feature",
      "properties": {
        "norad_id": 47059,
        "name": "COSMOS 2251 DEB",
        "group": "cosmos-2251-debris",
        "lat": 39.93566036168389,
        "lon": 33.35745563197461,
        "alt_km": 524.0056474861776,
        "timestamp": "2025-12-16T15:45:51.444559+00:00",
        "meta_object_name": "COSMOS 2251 DEB",
        "meta_object_id": "1993-036BXP",
        "meta_epoch": "2025-12-12T01:57:33.172416",
        "meta_mean_motion": 15.12724951,
        "meta_eccentricity": 0.00125007,
        "meta_inclination": 73.9813,
        "meta_ra_of_asc_node": 236.7898,
        "meta_arg_of_pericenter": 50.1346,
        "meta_mean_anomaly": 17.873,
        "meta_ephemeris_type": 0,
        "meta_classification_type": "U",
        "meta_norad_cat_id": 47059,
        "meta_element_set_no": 999,
        "meta_rev_at_epoch": 8295,
        "meta_bstar": 0.0036258701,
        "meta_mean_motion_dot": 0.00064189,
        "meta_mean_motion_ddot": 0,
        "tle_line1": "1 47059U 93036BXP 25346.08163394  .00064189  00000+0  36259-2 0  9994",
        "tle_line2": "2 47059  73.9813 236.7898 0012500  50.1346  17.8730 15.12724951 82955"
      },
      "geometry": {
        "type": "Point",
        "coordinates": [
          33.35745563197461,
          39.93566036168389
        ]
      }
    }
  ]
}